GLOBALSTAR M023         
1 25621U 99004A   25132.83374064 -.00000110  00000+0 -31869-4 0  9990
2 25621  52.0087 161.0942 0009467  47.4515 123.6579 12.62503616211262
GLOBALSTAR M036         
1 25623U 99004C   25132.93406561 -.00000004  00000+0  11409-2 0  9998
2 25623  51.9986 333.2429 0010853 349.5366 151.8480 11.86598681174795
GLOBALSTAR M038         
1 25624U 99004D   25132.84389419 -.00000050  00000+0  37501-3 0  9994
2 25624  51.9949 173.3573 0001663 336.7556 194.5889 12.32526831198014
GLOBALSTAR M022         
1 25649U 99012A   25132.91840451 -.00000065  00000+0  26187-3 0  9990
2 25649  52.0070  26.7768 0003114  97.3088 345.2074 12.02499987172132
GLOBALSTAR M046         
1 25651U 99012C   25132.89949873 -.00000015  00000+0  80815-3 0  9991
2 25651  52.0077 338.2517 0002213 161.3465 306.6685 12.09409304179390
